STARLINK-1837
1 27128C 20088G   21325.10176211  .00001102  00000-0  73825-4 0  3258
2 27128  53.0537 127.7626 0002963 187.0891 203.8044 15.06388298    14
